37192,GLOBALSTAR M075,2010,114.08,700.0,+,51.99,Active,1,LEO,Kazakhstan,Globalstar,Commercial,Communications,Soyuz,1 37192U 10054E   24324.39884122 -.00000112  00000+0 -47044-4 0  9992,2 37192  51.9937 100.2939 0000795 104.1164 287.5813 12.62269061649356,12.62269061,7.95e-05,LEO
37193,GLOBALSTAR M073,2010,114.08,700.0,+,52.01,Active,1,LEO,Kazakhstan,Globalstar,Commercial,Communications,Soyuz,1 37193U 10054F   24324.50176789 -.00000084  00000+0  10946-3 0  9996,2 37193  52.0085  13.6414 0000325 137.2194   2.3441 12.62272682651353,12.62272682,3.25e-05,LEO
37739,GLOBALSTAR M083,2011,114.08,700.0,+,51.99,Active,1,LEO,Kazakhstan,Globalstar,Commercial,Communications,Soyuz,1 37739U 11033A   24324.44122056 -.00000095  00000+0  47925-4 0  9991,2 37739  51.9870 322.8447 0000458  93.5309  70.8310 12.62267960620364,12.6226796,4.58e-05,LEO
37740,GLOBALSTAR M088,2011,114.08,700.0,+,51.97,Active,1,LEO,Kazakhstan,Globalstar,Commercial,Communications,Soyuz,1 37740U 11033B   24324.49533167 -.00000068  00000+0  20090-3 0  9990,2 37740  51.9727 228.3464 0000917  75.4338  95.6785 12.62265226615916,12.62265226,9.17e-05,LEO
37741,GLOBALSTAR M091,2011,114.08,700.0,+,52.0,Active,1,LEO,Kazakhstan,Globalstar,Commercial,Communications,Soyuz,1 37741U 11033C   24324.35065663 -.00000085  00000+0  10235-3 0  9996,2 37741  51.9981 191.9697 0001248  91.0965  80.8430 12.62270773616681,12.62270773,0.0001248,LEO
37742,GLOBALSTAR M085,2011,114.08,700.0,+,51.98,Active,1,LEO,Kazakhstan,Globalstar,Commercial,Communications,Soyuz,1 37742U 11033D   24324.54519883 -.00000110  00000+0 -35677-4 0  9994,2 37742  51.9835 142.5981 0001254 102.8934 294.7521 12.62269497617221,12.62269497,0.0001254,LEO
37743,GLOBALSTAR M081,2011,114.08,700.0,+,51.99,Active,1,LEO,Kazakhstan,Globalstar,Commercial,Communications,Soyuz,1 37743U 11033E   24324.56796185 -.00000056  00000+0  26647-3 0  9993,2 37743  51.9930 145.1865 0001036 113.0205 267.9713 12.62273631617377,12.62273631,0.0001036,LEO
37744,GLOBALSTAR M089,2011,114.08,700.0,+,51.99,Active,1,LEO,Kazakhstan,Globalstar,Commercial,Communications,Soyuz,1 37744U 11033F   24324.54392380 -.00000117  00000+0 -73192-4 0  9998,2 37744  51.9919  99.5264 0000570 112.8108 338.0355 12.62272425618217,12.62272425,5.7e-05,LEO
